SCISAT 1                
1 27858U 03036A   22231.54476960  .00000331  00000+0  51303-4 0  9995
2 27858  73.9320  59.5174 0006772  82.8546 277.3398 14.77609938 24753
SWIFT                   
1 28485U 04047A   22231.33979840  .00003491  00000+0  19818-3 0  9991
2 28485  20.5556 228.8201 0010562  18.0779 342.0029 15.06729055973044
CLOUDSAT                
1 29107U 06016A   22231.46106995  .00000132  00000+0  35199-4 0  9998
2 29107  98.3326 192.2087 0004614 106.8437 253.3271 14.63044646868244
CALIPSO                 
1 29108U 06016B   22231.46050935  .00000652  00000+0  13673-3 0  9990
2 29108  98.3297 191.7510 0001341  84.9055 275.2299 14.63024695868237
HINODE (SOLAR-B)        
1 29479U 06041A   22231.48879482  .00000409  00000+0  85360-4 0  9990
2 29479  98.1208 245.8516 0019182  31.3433 328.8909 14.64883503849989
SHIJIAN-6 02A (SJ-6 02A)
1 29505U 06046A   22231.49074190  .00002227  00000+0  20212-3 0  9993
2 29505  97.7760 252.1063 0002705 274.7235  85.3685 14.96318586862127
SHIJIAN-6 02B (SJ-6 02B)
1 29506U 06046B   22231.43117321  .00000822  00000+0  82260-4 0  9993
2 29506  97.7964 252.1495 0002836  48.6564 311.4892 14.94129727861544
AGILE                   
1 31135U 07013A   22231.46797728  .00010894  00000+0  24114-3 0  9990
2 31135   2.4680  94.9235 0009801   3.1612 356.8504 15.38883752486670
AIM                     
1 31304U 07015A   22231.47472518  .00007459  00000+0  36519-3 0  9993
2 31304  97.8514 153.0578 0005761 142.3065 217.8572 15.18474671840756
FGRST (GLAST)           
1 33053U 08029A   22231.31843297  .00001709  00000+0  79141-4 0  9992
2 33053  25.5827  98.4546 0011934 187.5358 172.4999 15.12335448783225
WISE                    
1 36119U 09071A   22231.34384133  .00006730  00000+0  20506-3 0  9997
2 36119  97.2363 264.5273 0004044  88.4427 271.7280 15.34287016705147
SDO                     
1 36395U 10005A   22230.20162200 -.00000091  00000+0  00000+0 0  9993
2 36395  31.7704 108.2237 0001037 237.1575 311.6319  1.00276520 46034
CRYOSAT 2               
1 36508U 10013A   22231.59078655  .00000164  00000+0  40051-4 0  9996
2 36508  92.0346 299.4297 0006322  52.6133 307.5649 14.51898499655337
X-SAT                   
1 37389U 11015C   22231.51685021  .00000037  00000+0  33435-4 0  9997
2 37389  98.3320 261.5690 0015174 124.1721 236.0902 14.24434259589183
GCOM-W1 (SHIZUKU)       
1 38337U 12025A   22231.41156944  .00000322  00000+0  81395-4 0  9994
2 38337  98.2043 170.9591 0001582  76.3115  34.3965 14.57127386545483
NUSTAR                  
1 38358U 12031A   22231.25779436  .00002293  00000+0  16096-3 0  9997
2 38358   6.0260 266.7152 0011205 168.0130 192.0266 14.89540332554234
NEOSSAT                 
1 39089U 13009D   22231.50583148  .00000113  00000+0  55061-4 0  9991
2 39089  98.4212  66.2294 0012554  90.0516 270.2108 14.34683289496258
