[{"OBJECT_NAME":"SCISAT 1","OBJECT_ID":"2003-036A","EPOCH":"2022-08-19T13:04:28.093440","MEAN_MOTION":14.77609938,"ECCENTRICITY":0.0006772,"INCLINATION":73.932,"RA_OF_ASC_NODE":59.5174,"ARG_OF_PERICENTER":82.8546,"MEAN_ANOMALY":277.3398,"EPHEMERIS_TYPE":0,"CLASSIFICATION_TYPE":"U","NORAD_CAT_ID":27858,"ELEMENT_SET_NO":999,"REV_AT_EPOCH":2475,"BSTAR":5.1303e-5,"MEAN_MOTION_DOT":3.31e-6,"MEAN_MOTION_DDOT":0},{"OBJECT_NAME":"SWIFT","OBJECT_ID":"2004-047A","EPOCH":"2022-08-19T08:09:18.581760","MEAN_MOTION":15.06729055,"ECCENTRICITY":0.0010562,"INCLINATION":20.5556,"RA_OF_ASC_NODE":228.8201,"ARG_OF_PERICENTER":18.0779,"MEAN_ANOMALY":342.0029,"EPHEMERIS_TYPE":0,"CLASSIFICATION_TYPE":"U","NORAD_CAT_ID":28485,"ELEMENT_SET_NO":999,"REV_AT_EPOCH":97304,"BSTAR":0.00019818,"MEAN_MOTION_DOT":3.491e-5,"MEAN_MOTION_DDOT":0},{"OBJECT_NAME":"CLOUDSAT","OBJECT_ID":"2006-016A","EPOCH":"2022-08-19T11:03:56.443680","MEAN_MOTION":14.63044646,"ECCENTRICITY":0.0004614,"INCLINATION":98.3326,"RA_OF_ASC_NODE":192.2087,"ARG_OF_PERICENTER":106.8437,"MEAN_ANOMALY":253.3271,"EPHEMERIS_TYPE":0,"CLASSIFICATION_TYPE":"U","NORAD_CAT_ID":29107,"ELEMENT_SET_NO":999,"REV_AT_EPOCH":86824,"BSTAR":3.5199e-5,"MEAN_MOTION_DOT":1.32e-6,"MEAN_MOTION_DDOT":0},{"OBJECT_NAME":"CALIPSO","OBJECT_ID":"2006-016B","EPOCH":"2022-08-19T11:03:08.007840","MEAN_MOTION":14.63024695,"ECCENTRICITY":0.0001341,"INCLINATION":98.3297,"RA_OF_ASC_NODE":191.751,"ARG_OF_PERICENTER":84.9055,"MEAN_ANOMALY":275.2299,"EPHEMERIS_TYPE":0,"CLASSIFICATION_TYPE":"U","NORAD_CAT_ID":29108,"ELEMENT_SET_NO":999,"REV_AT_EPOCH":86823,"BSTAR":0.00013673,"MEAN_MOTION_DOT":6.52e-6,"MEAN_MOTION_DDOT":0},{"OBJECT_NAME":"HINODE (SOLAR-B)","OBJECT_ID":"2006-041A","EPOCH":"2022-08-19T11:43:51.872448","MEAN_MOTION":14.64883503,"ECCENTRICITY":0.0019182,"INCLINATION":98.1208,"RA_OF_ASC_NODE":245.8516,"ARG_OF_PERICENTER":31.3433,"MEAN_ANOMALY":328.8909,"EPHEMERIS_TYPE":0,"CLASSIFICATION_TYPE":"U","NORAD_CAT_ID":29479,"ELEMENT_SET_NO":999,"REV_AT_EPOCH":84998,"BSTAR":8.536e-5,"MEAN_MOTION_DOT":4.09e-6,"MEAN_MOTION_DDOT":0},{"OBJECT_NAME":"SJ-6C","OBJECT_ID":"2006-046A","EPOCH":"2022-08-19T11:46:40.100160","MEAN_MOTION":14.96318586,"ECCENTRICITY":0.0002705,"INCLINATION":97.776,"RA_OF_ASC_NODE":252.1063,"ARG_OF_PERICENTER":274.7235,"MEAN_ANOMALY":85.3685,"EPHEMERIS_TYPE":0,"CLASSIFICATION_TYPE":"U","NORAD_CAT_ID":29505,"ELEMENT_SET_NO":999,"REV_AT_EPOCH":86212,"BSTAR":0.00020212,"MEAN_MOTION_DOT":2.227e-5,"MEAN_MOTION_DDOT":0},{"OBJECT_NAME":"SJ-6D","OBJECT_ID":"2006-046B","EPOCH":"2022-08-19T10:20:53.365344","MEAN_MOTION":14.94129727,"ECCENTRICITY":0.0002836,"INCLINATION":97.7964,"RA_OF_ASC_NODE":252.1495,"ARG_OF_PERICENTER":48.6564,"MEAN_ANOMALY":311.4892,"EPHEMERIS_TYPE":0,"CLASSIFICATION_TYPE":"U","NORAD_CAT_ID":29506,"ELEMENT_SET_NO":999,"REV_AT_EPOCH":86154,"BSTAR":8.226e-5,"MEAN_MOTION_DOT":8.22e-6,"MEAN_MOTION_DDOT":0},{"OBJECT_NAME":"AGILE","OBJECT_ID":"2007-013A","EPOCH":"2022-08-19T11:13:53.236992","MEAN_MOTION":15.38883752,"ECCENTRICITY":0.0009801,"INCLINATION":2.468,"RA_OF_ASC_NODE":94.9235,"ARG_OF_PERICENTER":3.1612,"MEAN_ANOMALY":356.8504,"EPHEMERIS_TYPE":0,"CLASSIFICATION_TYPE":"U","NORAD_CAT_ID":31135,"ELEMENT_SET_NO":999,"REV_AT_EPOCH":48667,"BSTAR":0.00024114,"MEAN_MOTION_DOT":0.00010894,"MEAN_MOTION_DDOT":0},{"OBJECT_NAME":"AIM","OBJECT_ID":"2007-015A","EPOCH":"2022-08-19T11:23:36.255552","MEAN_MOTION":15.18474671,"ECCENTRICITY":0.0005761,"INCLINATION":97.8514,"RA_OF_ASC_NODE":153.0578,"ARG_OF_PERICENTER":142.3065,"MEAN_ANOMALY":217.8572,"EPHEMERIS_TYPE":0,"CLASSIFICATION_TYPE":"U","NORAD_CAT_ID":31304,"ELEMENT_SET_NO":999,"REV_AT_EPOCH":84075,"BSTAR":0.00036519,"MEAN_MOTION_DOT":7.459e-5,"MEAN_MOTION_DDOT":0},{"OBJECT_NAME":"FGRST (GLAST)","OBJECT_ID":"2008-029A","EPOCH":"2022-08-19T07:38:32.608608","MEAN_MOTION":15.12335448,"ECCENTRICITY":0.0011934,"INCLINATION":25.5827,"RA_OF_ASC_NODE":98.4546,"ARG_OF_PERICENTER":187.5358,"MEAN_ANOMALY":172.4999,"EPHEMERIS_TYPE":0,"CLASSIFICATION_TYPE":"U","NORAD_CAT_ID":33053,"ELEMENT_SET_NO":999,"REV_AT_EPOCH":78322,"BSTAR":7.9141e-5,"MEAN_MOTION_DOT":1.709e-5,"MEAN_MOTION_DDOT":0},{"OBJECT_NAME":"WISE","OBJECT_ID":"2009-071A","EPOCH":"2022-08-19T08:15:07.890912","MEAN_MOTION":15.34287016,"ECCENTRICITY":0.0004044,"INCLINATION":97.2363,"RA_OF_ASC_NODE":264.5273,"ARG_OF_PERICENTER":88.4427,"MEAN_ANOMALY":271.728,"EPHEMERIS_TYPE":0,"CLASSIFICATION_TYPE":"U","NORAD_CAT_ID":36119,"ELEMENT_SET_NO":999,"REV_AT_EPOCH":70514,"BSTAR":0.00020506,"MEAN_MOTION_DOT":6.73e-5,"MEAN_MOTION_DDOT":0},{"OBJECT_NAME":"SDO","OBJECT_ID":"2010-005A","EPOCH":"2022-08-18T04:50:20.140800","MEAN_MOTION":1.0027652,"ECCENTRICITY":0.0001037,"INCLINATION":31.7704,"RA_OF_ASC_NODE":108.2237,"ARG_OF_PERICENTER":237.1575,"MEAN_ANOMALY":311.6319,"EPHEMERIS_TYPE":0,"CLASSIFICATION_TYPE":"U","NORAD_CAT_ID":36395,"ELEMENT_SET_NO":999,"REV_AT_EPOCH":4603,"BSTAR":0,"MEAN_MOTION_DOT":-9.1e-7,"MEAN_MOTION_DDOT":0},{"OBJECT_NAME":"CRYOSAT 2","OBJECT_ID":"2010-013A","EPOCH":"2022-08-19T14:10:43.957920","MEAN_MOTION":14.51898499,"ECCENTRICITY":0.0006322,"INCLINATION":92.0346,"RA_OF_ASC_NODE":299.4297,"ARG_OF_PERICENTER":52.6133,"MEAN_ANOMALY":307.5649,"EPHEMERIS_TYPE":0,"CLASSIFICATION_TYPE":"U","NORAD_CAT_ID":36508,"ELEMENT_SET_NO":999,"REV_AT_EPOCH":65533,"BSTAR":4.0051e-5,"MEAN_MOTION_DOT":1.64e-6,"MEAN_MOTION_DDOT":0},{"OBJECT_NAME":"X-SAT","OBJECT_ID":"2011-015C","EPOCH":"2022-08-19T12:24:15.858144","MEAN_MOTION":14.24434259,"ECCENTRICITY":0.0015174,"INCLINATION":98.332,"RA_OF_ASC_NODE":261.569,"ARG_OF_PERICENTER":124.1721,"MEAN_ANOMALY":236.0902,"EPHEMERIS_TYPE":0,"CLASSIFICATION_TYPE":"U","NORAD_CAT_ID":37389,"ELEMENT_SET_NO":999,"REV_AT_EPOCH":58918,"BSTAR":3.3435e-5,"MEAN_MOTION_DOT":3.7e-7,"MEAN_MOTION_DDOT":0},{"OBJECT_NAME":"GCOM-W1 (SHIZUKU)","OBJECT_ID":"2012-025A","EPOCH":"2022-08-19T09:52:39.599616","MEAN_MOTION":14.57127386,"ECCENTRICITY":0.0001582,"INCLINATION":98.2043,"RA_OF_ASC_NODE":170.9591,"ARG_OF_PERICENTER":76.3115,"MEAN_ANOMALY":34.3965,"EPHEMERIS_TYPE":0,"CLASSIFICATION_TYPE":"U","NORAD_CAT_ID":38337,"ELEMENT_SET_NO":999,"REV_AT_EPOCH":54548,"BSTAR":8.1395e-5,"MEAN_MOTION_DOT":3.22e-6,"MEAN_MOTION_DDOT":0},{"OBJECT_NAME":"NUSTAR","OBJECT_ID":"2012-031A","EPOCH":"2022-08-19T06:11:13.432704","MEAN_MOTION":14.89540332,"ECCENTRICITY":0.0011205,"INCLINATION":6.026,"RA_OF_ASC_NODE":266.7152,"ARG_OF_PERICENTER":168.013,"MEAN_ANOMALY":192.0266,"EPHEMERIS_TYPE":0,"CLASSIFICATION_TYPE":"U","NORAD_CAT_ID":38358,"ELEMENT_SET_NO":999,"REV_AT_EPOCH":55423,"BSTAR":0.00016096,"MEAN_MOTION_DOT":2.293e-5,"MEAN_MOTION_DDOT":0},{"OBJECT_NAME":"NEOSSAT","OBJECT_ID":"2013-009D","EPOCH":"2022-08-19T12:08:23.839872","MEAN_MOTION":14.34683289,"ECCENTRICITY":0.0012554,"INCLINATION":98.4212,"RA_OF_ASC_NODE":66.2294,"ARG_OF_PERICENTER":90.0516,"MEAN_ANOMALY":270.2108,"EPHEMERIS_TYPE":0,"CLASSIFICATION_TYPE":"U","NORAD_CAT_ID":39089,"ELEMENT_SET_NO":999,"REV_AT_EPOCH":49625,"BSTAR":5.5061e-5,"MEAN_MOTION_DOT":1.13e-6,"MEAN_MOTION_DDOT":0}]